IRIDIUM 154             
1 43574U 18061F   26201.51118658  .00000017  00000+0 -93927-6 0  9999
2 43574  86.3935  42.8670 0002199  88.8576 271.2872 14.34217319418185
IRIDIUM 163             
1 43575U 18061G   26201.07354741  .00000074  00000+0  19263-4 0  9997
2 43575  86.3935  42.9641 0002123  87.7459 272.3980 14.34217883418098
IRIDIUM 156             
1 43576U 18061H   26201.81562962  .00000113  00000+0  33365-4 0  9999
2 43576  86.3937  42.6613 0002184  93.6766 266.4680 14.34217010418195
IRIDIUM 164             
1 43577U 18061J   26201.51752907 -.00000034  00000+0 -19232-4 0  9998
2 43577  86.3934  42.8267 0002231  88.6496 271.4955 14.34217446418191
IRIDIUM 159             
1 43578U 18061K   26201.83465809  .00000003  00000+0 -61475-5 0  9998
2 43578  86.3937  42.6302 0002104  87.0653 273.0784 14.34217453418208
IRIDIUM 180             
1 43922U 19002A   26201.83415493 -.00000062  00000+0 -29330-4 0  9990
2 43922  86.3994 339.5332 0002054  91.3572 268.7860 14.34217094393813
IRIDIUM 176             
1 43923U 19002B   26201.87108829  .00000500  00000+0  75380-4 0  9998
2 43923  86.6119 339.4562 0002342  91.7892 268.3593 14.72253852404208
IRIDIUM 168             
1 43924U 19002C   26201.82781285  .00000163  00000+0  51123-4 0  9991
2 43924  86.4001 339.6137 0002202  91.5112 268.6336 14.34218191393799
IRIDIUM 173             
1 43925U 19002D   26201.81512622 -.00000005  00000+0 -89452-5 0  9992
2 43925  86.3993 339.5069 0002027  92.9705 267.1722 14.34217843393774
IRIDIUM 169             
1 43926U 19002E   26201.84764161  .00000165  00000+0  47507-4 0  9992
2 43926  86.4228  11.1165 0002085 104.6927 255.4502 14.38605095395062
IRIDIUM 172             
1 43927U 19002F   26201.80878404  .00000072  00000+0  18591-4 0  9993
2 43927  86.3998 339.5173 0002196  91.8491 268.2957 14.34218145393783
IRIDIUM 175             
1 43928U 19002G   26201.75473030  .00000167  00000+0  43420-4 0  9998
2 43928  86.4505 276.4902 0005519 104.6951 255.4862 14.43628987403823
IRIDIUM 171             
1 43929U 19002H   26201.78975741  .00000037  00000+0  59844-5 0  9992
2 43929  86.4007 339.8351 0002274  95.7058 264.4398 14.34217288393770
IRIDIUM 170             
1 43930U 19002J   26201.87725572  .00000492  00000+0  74158-4 0  9998
2 43930  86.6118 339.4557 0002196  89.2238 270.9231 14.72254419404211
IRIDIUM 167             
1 43931U 19002K   26201.85318242  .00000005  00000+0 -52434-5 0  9994
2 43931  86.3993 339.5215 0002269  97.7331 262.4123 14.34217572393783
IRIDIUM 181             
1 56726U 23068S   26201.80054185  .00000175  00000+0  45880-4 0  9998
2 56726  86.4475  42.7328 0002358  83.8861 276.2608 14.43308946167287
IRIDIUM 177             
1 56727U 23068T   26201.78872115  .00000590  00000+0  74499-4 0  9996
2 56727  86.1988 312.8397 0002236  97.8060 262.3414 14.80029838171335
IRIDIUM 174             
1 56728U 23068U   26201.86478846  .00000498  00000+0  75045-4 0  9994
2 56728  86.6125 339.6116 0001941  93.0867 267.0572 14.72259411170974
IRIDIUM 178             
1 56729U 23068V   26201.84535336  .00000132  00000+0  14012-4 0  9993
2 56729  86.6542  11.2929 0002220  92.3465 267.8010 14.80021880171343
IRIDIUM 179             
1 56730U 23068W   26201.50194982  .00000154  00000+0  16918-4 0  9997
2 56730  86.6770  20.5134 0002384  94.0769 266.0725 14.80024138171293
